OBJECT_NAME,OBJECT_ID,EPOCH,MEAN_MOTION,ECCENTRICITY,INCLINATION,RA_OF_ASC_NODE,ARG_OF_PERICENTER,MEAN_ANOMALY,EPHEMERIS_TYPE,CLASSIFICATION_TYPE,NORAD_CAT_ID,ELEMENT_SET_NO,REV_AT_EPOCH,BSTAR,MEAN_MOTION_DOT,MEAN_MOTION_DDOT
ONEWEB-0158,2021-025N,2026-06-26T21:05:48.567840,13.13471951,.00016387,87.8971,318.2882,101.5087,258.6227,0,U,48054,999,25490,-.102852E-2,-.363E-5,0
ONEWEB-0157,2021-025P,2026-06-26T19:52:42.663648,13.13470857,.00022132,87.8967,318.3035,103.3045,256.8331,0,U,48055,999,25483,.28733987E-3,.118E-5,0
ONEWEB-0162,2021-025Q,2026-06-26T21:08:03.943680,13.13470129,.00019669,87.8966,318.2939,94.1932,265.9422,0,U,48056,999,25481,-.94399734E-3,-.332E-5,0
ONEWEB-0155,2021-025R,2026-06-26T21:18:00.393984,13.13470892,.00019398,87.8966,318.2887,103.8748,256.2597,0,U,48057,999,25495,-.64297908E-3,-.222E-5,0
ONEWEB-0149,2021-025S,2026-06-26T21:49:42.423456,13.13473849,.00018837,87.8961,318.2891,93.5201,266.6144,0,U,48058,999,25476,.21892269E-2,.812E-5,0
ONEWEB-0148,2021-025T,2026-06-26T20:56:04.072704,13.13470007,.00023271,87.8962,318.3015,88.1977,271.9419,0,U,48059,999,25488,-.70024346E-3,-.243E-5,0
ONEWEB-0160,2021-025U,2026-06-26T21:20:25.799136,13.13470938,.00011432,87.8962,318.2942,88.0609,272.0651,0,U,48060,999,25483,-.68609682E-3,-.238E-5,0
ONEWEB-0163,2021-025V,2026-06-26T20:58:29.654112,13.13468617,.00021493,87.8970,318.2925,102.0533,258.0837,0,U,48061,999,25495,-.11100918E-2,-.393E-5,0
ONEWEB-0159,2021-025W,2026-06-26T22:36:00.517824,13.13467889,.00020406,87.8974,318.2727,102.8192,257.3165,0,U,48062,999,25488,-.42693768E-3,-.143E-5,0
ONEWEB-0164,2021-025X,2026-06-26T20:19:30.290304,13.13470340,.00017858,87.8973,318.2980,99.1872,260.9459,0,U,48063,999,25485,.68240418E-3,.262E-5,0
ONEWEB-0167,2021-025Y,2026-06-26T20:59:43.626336,13.13468854,.00020399,87.8961,318.3016,116.9489,243.1849,0,U,48064,999,25484,-.93204694E-3,-.328E-5,0
ONEWEB-0166,2021-025Z,2026-06-26T21:32:38.729472,13.13472218,.00019175,87.8971,318.2694,97.4917,262.6430,0,U,48065,999,25492,-.24830928E-3,-.78E-6,0
ONEWEB-0151,2021-025AA,2026-06-26T21:35:03.730272,13.13471118,.00018296,87.8963,318.2851,102.4194,257.7140,0,U,48066,999,25486,-.21308001E-3,-.65E-6,0
ONEWEB-0170,2021-025AB,2026-06-26T21:47:14.395200,13.13479430,.00014263,87.8964,318.2853,105.4213,254.7074,0,U,48067,999,25482,-.51160849E-2,-.1855E-4,0
ONEWEB-0168,2021-025AC,2026-06-26T21:25:18.188832,13.13464023,.00019246,87.8971,318.2886,99.9082,260.2265,0,U,48068,999,25483,.18705609E-2,.696E-5,0
ONEWEB-0173,2021-025AD,2026-06-26T21:13:07.662144,13.13470731,.00021423,87.8963,318.2920,106.8260,253.3104,0,U,48069,999,25507,-.77668724E-3,-.271E-5,0
ONEWEB-0171,2021-025AE,2026-06-26T22:06:45.731232,13.13470365,.00018029,87.8961,318.2920,100.5539,259.5794,0,U,48070,999,25489,.7780091E-3,.297E-5,0
ONEWEB-0172,2021-025AF,2026-06-26T21:37:30.681120,13.13469773,.00019264,87.8967,318.2865,103.3186,256.8158,0,U,48071,999,25578,.39987777E-4,.27E-6,0
ONEWEB-0174,2021-025AG,2026-06-26T21:10:41.696256,13.13471212,.00020265,87.8967,318.2894,96.2771,263.8589,0,U,48072,999,25510,-.10744066E-2,-.38E-5,0
ONEWEB-0175,2021-025AH,2026-06-26T21:54:34.598016,13.13470962,.00016712,87.8970,318.2680,107.9834,252.1478,0,U,48073,999,25476,.69681493E-3,.267E-5,0
ONEWEB-0177,2021-025AJ,2026-06-26T22:11:38.418144,13.13468225,.00021115,87.8968,318.2840,98.1283,262.0086,0,U,48074,999,25495,.50207478E-3,.196E-5,0
ONEWEB-0178,2021-025AK,2026-06-26T22:38:39.492960,13.13468510,.00019102,87.8960,318.2912,107.1610,252.9729,0,U,48075,999,25500,-.60214186E-3,-.207E-5,0
ONEWEB-0108,2021-025AL,2026-06-26T21:39:56.851776,13.13471075,.00018225,87.8971,318.2800,91.0967,269.0371,0,U,48076,999,25492,.30079896E-3,.123E-5,0
ONEWEB-0169,2021-025AM,2026-06-26T22:26:15.739296,13.13470301,.00019818,87.8963,318.2805,97.2733,262.8622,0,U,48077,999,25358,.13643531E-4,.18E-6,0
ONEWEB-0176,2021-031A,2026-06-26T20:18:09.746496,13.14503513,.00019638,87.8971,287.7743,104.1278,256.0070,0,U,48210,999,24958,.27590557E-3,.115E-5,0
ONEWEB-0184,2021-031B,2026-06-26T19:39:20.532960,13.14503484,.000196,87.8976,287.7811,125.6493,234.4820,0,U,48211,999,24955,.17178714E-3,.76E-6,0
ONEWEB-0179,2021-031C,2026-06-26T20:26:56.522112,14.25530650,.0219369,87.8993,284.6462,225.3996,132.9118,0,U,48212,999,25042,.86162723E-4,.28E-5,0
ONEWEB-0180,2021-031D,2026-06-26T19:43:55.731648,13.14505044,.00025075,87.8977,287.7766,106.5686,253.5719,0,U,48213,999,24948,.99287486E-4,.5E-6,0
ONEWEB-0218,2021-031E,2026-06-26T20:15:53.464320,13.14502661,.00022267,87.8981,287.7718,123.8323,236.3019,0,U,48214,999,24964,.32168854E-3,.132E-5,0
ONEWEB-0209,2021-031F,2026-06-26T19:59:53.893824,13.14502035,.00021981,87.8969,287.7898,100.8192,259.3185,0,U,48215,999,24964,.61644203E-3,.241E-5,0
