ONEWEB-0158             
1 48054U 21025N   26177.87903435 -.00000363  00000+0 -10285-2 0  9994
2 48054  87.8971 318.2882 0001638 101.5087 258.6227 13.13471951254902
ONEWEB-0157             
1 48055U 21025P   26177.82827157  .00000118  00000+0  28734-3 0  9991
2 48055  87.8967 318.3035 0002213 103.3045 256.8331 13.13470857254835
ONEWEB-0162             
1 48056U 21025Q   26177.88060120 -.00000332  00000+0 -94400-3 0  9990
2 48056  87.8966 318.2939 0001966  94.1932 265.9422 13.13470129254815
ONEWEB-0155             
1 48057U 21025R   26177.88750456 -.00000222  00000+0 -64298-3 0  9999
2 48057  87.8966 318.2887 0001939 103.8748 256.2597 13.13470892254959
ONEWEB-0149             
1 48058U 21025S   26177.90951879  .00000812  00000+0  21892-2 0  9990
2 48058  87.8961 318.2891 0001883  93.5201 266.6144 13.13473849254764
ONEWEB-0148             
1 48059U 21025T   26177.87226936 -.00000243  00000+0 -70024-3 0  9998
2 48059  87.8962 318.3015 0002327  88.1977 271.9419 13.13470007254889
ONEWEB-0160             
1 48060U 21025U   26177.88918749 -.00000238  00000+0 -68610-3 0  9993
2 48060  87.8962 318.2942 0001143  88.0609 272.0651 13.13470938254833
ONEWEB-0163             
1 48061U 21025V   26177.87395433 -.00000393  00000+0 -11101-2 0  9996
2 48061  87.8970 318.2925 0002149 102.0533 258.0837 13.13468617254958
ONEWEB-0159             
1 48062U 21025W   26177.94167266 -.00000143  00000+0 -42694-3 0  9991
2 48062  87.8974 318.2727 0002040 102.8192 257.3165 13.13467889254880
ONEWEB-0164             
1 48063U 21025X   26177.84687836  .00000262  00000+0  68240-3 0  9996
2 48063  87.8973 318.2980 0001785  99.1872 260.9459 13.13470340254858
ONEWEB-0167             
1 48064U 21025Y   26177.87481049 -.00000328  00000+0 -93205-3 0  9992
2 48064  87.8961 318.3016 0002039 116.9489 243.1849 13.13468854254844
ONEWEB-0166             
1 48065U 21025Z   26177.89767048 -.00000078  00000+0 -24831-3 0  9992
2 48065  87.8971 318.2694 0001917  97.4917 262.6430 13.13472218254920
ONEWEB-0151             
1 48066U 21025AA  26177.89934873 -.00000065  00000+0 -21308-3 0  9997
2 48066  87.8963 318.2851 0001829 102.4194 257.7140 13.13471118254867
ONEWEB-0170             
1 48067U 21025AB  26177.90780550 -.00001855  00000+0 -51161-2 0  9998
2 48067  87.8964 318.2853 0001426 105.4213 254.7074 13.13479430254823
ONEWEB-0168             
1 48068U 21025AC  26177.89257163  .00000696  00000+0  18706-2 0  9994
2 48068  87.8971 318.2886 0001924  99.9082 260.2265 13.13464023254839
ONEWEB-0173             
1 48069U 21025AD  26177.88411646 -.00000271  00000+0 -77669-3 0  9997
2 48069  87.8963 318.2920 0002142 106.8260 253.3104 13.13470731255074
ONEWEB-0171             
1 48070U 21025AE  26177.92136263  .00000297  00000+0  77801-3 0  9997
2 48070  87.8961 318.2920 0001802 100.5539 259.5794 13.13470365254891
ONEWEB-0172             
1 48071U 21025AF  26177.90104955  .00000027  00000+0  39988-4 0  9995
2 48071  87.8967 318.2865 0001926 103.3186 256.8158 13.13469773255786
ONEWEB-0174             
1 48072U 21025AG  26177.88242704 -.00000380  00000+0 -10744-2 0  9999
2 48072  87.8967 318.2894 0002026  96.2771 263.8589 13.13471212255104
ONEWEB-0175             
1 48073U 21025AH  26177.91290044  .00000267  00000+0  69681-3 0  9991
2 48073  87.8970 318.2680 0001671 107.9834 252.1478 13.13470962254767
ONEWEB-0177             
1 48074U 21025AJ  26177.92475021  .00000196  00000+0  50207-3 0  9998
2 48074  87.8968 318.2840 0002111  98.1283 262.0086 13.13468225254957
ONEWEB-0178             
1 48075U 21025AK  26177.94351265 -.00000207  00000+0 -60214-3 0  9998
2 48075  87.8960 318.2912 0001910 107.1610 252.9729 13.13468510255007
ONEWEB-0108             
1 48076U 21025AL  26177.90274134  .00000123  00000+0  30080-3 0  9997
2 48076  87.8971 318.2800 0001822  91.0967 269.0371 13.13471075254926
ONEWEB-0169             
1 48077U 21025AM  26177.93490439  .00000018  00000+0  13644-4 0  9990
2 48077  87.8963 318.2805 0001981  97.2733 262.8622 13.13470301253580
ONEWEB-0176             
1 48210U 21031A   26177.84594614  .00000115  00000+0  27591-3 0  9999
2 48210  87.8971 287.7743 0001963 104.1278 256.0070 13.14503513249581
ONEWEB-0184             
1 48211U 21031B   26177.81898765  .00000076  00000+0  17179-3 0  9998
2 48211  87.8976 287.7811 0001960 125.6493 234.4820 13.14503484249554
ONEWEB-0179             
1 48212U 21031C   26177.85204308  .00000280  00000+0  86163-4 0  9994
2 48212  87.8993 284.6462 0219369 225.3996 132.9118 14.25530650250420
ONEWEB-0180             
1 48213U 21031D   26177.82217282  .00000050  00000+0  99287-4 0  9993
2 48213  87.8977 287.7766 0002507 106.5686 253.5719 13.14505044249481
ONEWEB-0218             
1 48214U 21031E   26177.84436880  .00000132  00000+0  32169-3 0  9999
2 48214  87.8981 287.7718 0002226 123.8323 236.3019 13.14502661249644
ONEWEB-0209             
1 48215U 21031F   26177.83326266  .00000241  00000+0  61644-3 0  9996
2 48215  87.8969 287.7898 0002198 100.8192 259.3185 13.14502035249641
